[{"OBJECT_NAME":"HORS 2","OBJECT_ID":"2023-091AG","EPOCH":"2026-03-09T22:11:34.810944","MEAN_MOTION":15.2928008,"ECCENTRICITY":0.00098173,"INCLINATION":97.5195,"RA_OF_ASC_NODE":134.7443,"ARG_OF_PERICENTER":79.3164,"MEAN_ANOMALY":280.9181,"EPHEMERIS_TYPE":0,"CLASSIFICATION_TYPE":"U","NORAD_CAT_ID":57196,"ELEMENT_SET_NO":999,"REV_AT_EPOCH":14934,"BSTAR":0.00059338338,"MEAN_MOTION_DOT":0.00016821,"MEAN_MOTION_DDOT":0},{"OBJECT_NAME":"STARLINK-35461","OBJECT_ID":"2025-236C","EPOCH":"2026-03-09T08:05:49.974144","MEAN_MOTION":15.30221657,"ECCENTRICITY":0.00010049,"INCLINATION":53.1584,"RA_OF_ASC_NODE":105.2978,"ARG_OF_PERICENTER":134.7805,"MEAN_ANOMALY":225.3277,"EPHEMERIS_TYPE":0,"CLASSIFICATION_TYPE":"U","NORAD_CAT_ID":66088,"ELEMENT_SET_NO":999,"REV_AT_EPOCH":2283,"BSTAR":0.0009985486,"MEAN_MOTION_DOT":0.00029352,"MEAN_MOTION_DDOT":0}]
